OBJECT_NAME,OBJECT_ID,EPOCH,MEAN_MOTION,ECCENTRICITY,INCLINATION,RA_OF_ASC_NODE,ARG_OF_PERICENTER,MEAN_ANOMALY,EPHEMERIS_TYPE,CLASSIFICATION_TYPE,NORAD_CAT_ID,ELEMENT_SET_NO,REV_AT_EPOCH,BSTAR,MEAN_MOTION_DOT,MEAN_MOTION_DDOT
STARLINK-36689,2026-034AE,2026-07-14T22:00:03.000096,15.33544328,.00012363,53.1608,333.3705,76.4323,278.6030,0,U,67878,999,592,.45506599E-3,.1462E-3,0
STARLINK-36818,2026-035A,2026-07-14T19:16:07.453920,15.33451798,.00017801,97.2845,128.5370,88.4011,271.7436,0,U,67879,999,2346,.32614533E-3,.10471E-3,0
STARLINK-36821,2026-035B,2026-07-14T19:12:12.599712,15.33442940,.00014921,97.2849,128.5417,89.4283,270.7131,0,U,67880,999,2346,.12787586E-3,.4055E-4,0
STARLINK-36808,2026-035C,2026-07-14T19:43:31.998432,15.33453314,.00018228,97.2845,128.6678,98.7197,261.4253,0,U,67881,999,2347,.35921688E-3,.11543E-3,0
STARLINK-36817,2026-035D,2026-07-14T18:36:58.527360,15.33451691,.00026395,97.2844,128.5760,93.2134,266.9411,0,U,67882,999,2346,.35779619E-3,.11497E-3,0
STARLINK-36856,2026-035E,2026-07-14T18:40:53.425632,15.33447753,.00018142,97.2839,128.5724,87.0892,273.0559,0,U,67883,999,2346,.26050607E-3,.8345E-4,0
STARLINK-36842,2026-035F,2026-07-14T19:08:17.783520,15.33448790,.00023095,97.2840,128.5435,87.5971,272.5536,0,U,67884,999,2346,.29234574E-3,.9376E-4,0
STARLINK-36826,2026-035G,2026-07-14T18:52:38.124768,15.33446397,.00017348,97.2844,128.5586,99.0646,261.0793,0,U,67885,999,2346,.37385113E-3,.12014E-3,0
STARLINK-36390,2026-035H,2026-07-14T19:04:22.810080,15.33450771,.00017575,97.2848,128.5481,81.4410,278.7032,0,U,67886,999,2346,.36396703E-3,.11696E-3,0
STARLINK-36368,2026-035J,2026-07-14T18:21:18.559296,15.33450299,.00031228,97.2819,128.5924,105.3934,254.7654,0,U,67887,999,2346,.66016095E-3,.21304E-3,0
STARLINK-36801,2026-035K,2026-07-14T18:25:13.727136,15.33446122,.00018761,97.2841,128.5881,84.4520,275.6936,0,U,67888,999,2346,.25073981E-3,.8029E-4,0
STARLINK-36372,2026-035L,2026-07-14T18:33:03.590208,15.33451313,.00020214,97.2840,128.5801,98.4380,261.7092,0,U,67889,999,2346,.43592203E-3,.14028E-3,0
STARLINK-36363,2026-035M,2026-07-14T22:04:29.032608,15.33451259,.00017683,97.2842,128.6858,92.0163,268.1282,0,U,67890,999,2348,.29589617E-3,.9492E-4,0
STARLINK-36816,2026-035N,2026-07-14T19:17:54.712608,15.33452687,.00017988,97.2839,127.6272,89.9180,270.2269,0,U,67891,999,2340,.6667198E-3,.21516E-3,0
STARLINK-36813,2026-035P,2026-07-14T19:20:02.415264,15.33451184,.00017943,97.2844,128.6890,94.4127,265.7321,0,U,67892,999,2347,.36779778E-3,.1182E-3,0
STARLINK-36803,2026-035Q,2026-07-14T19:31:47.098848,15.33455356,.00018411,97.2845,128.6754,88.7787,271.3667,0,U,67893,999,2347,.37680584E-3,.12113E-3,0
STARLINK-36846,2026-035R,2026-07-14T19:00:27.927360,15.33447720,.00019892,97.2848,128.5539,92.5015,267.6456,0,U,67894,999,2346,.31246075E-3,.10027E-3,0
STARLINK-36866,2026-035S,2026-07-14T18:44:48.330816,15.33451677,.0002018,97.2838,128.5694,91.4197,268.7277,0,U,67895,999,2346,.38963178E-3,.12528E-3,0
STARLINK-36877,2026-035T,2026-07-14T19:39:36.951552,15.33457025,.00022701,97.2833,128.6706,106.5781,253.5711,0,U,67896,999,2347,.48021813E-3,.15467E-3,0
STARLINK-36870,2026-035U,2026-07-14T19:47:26.876832,15.33457430,.00021304,97.2836,128.6655,87.4285,272.7201,0,U,67897,999,2347,.38867064E-3,.12499E-3,0
STARLINK-36810,2026-035V,2026-07-14T18:29:08.605536,15.33447184,.00021239,97.2840,128.5853,102.9886,257.1594,0,U,67898,999,2346,.26650777E-3,.8539E-4,0
STARLINK-36878,2026-035W,2026-07-14T19:23:57.250464,15.33454489,.00021259,97.2846,128.6820,104.3715,255.7764,0,U,67899,999,2347,.3688346E-3,.11855E-3,0
STARLINK-36361,2026-035X,2026-07-14T19:27:52.293888,15.33450494,.00017973,97.2848,128.6812,95.6212,264.5236,0,U,67900,999,2347,.33156401E-3,.10646E-3,0
STARLINK-36336,2026-035Y,2026-07-14T19:51:23.827104,15.33426205,.0001474,97.2845,128.6581,98.1520,261.9890,0,U,67901,999,2347,.12024221E-2,.38921E-3,0
STARLINK-36876,2026-035Z,2026-07-14T19:35:42.042048,15.33456613,.00016665,97.2842,128.6755,88.1822,271.9611,0,U,67902,999,2347,.48699952E-3,.15686E-3,0
STARLINK-36257,2026-035AA,2026-07-14T18:48:43.167744,15.33452449,.00022236,97.2836,128.5655,105.0927,255.0562,0,U,67903,999,2346,.4038098E-3,.12988E-3,0
STARLINK-36814,2026-036A,2026-07-14T12:21:09.940032,15.27536939,.0001616,43.0005,249.4573,285.8966,74.1707,0,U,67904,999,2311,-.11935152E-4,-.59E-5,0
STARLINK-36729,2026-036B,2026-07-14T12:17:26.996928,15.27575828,.0001529,43.0016,249.4218,276.1126,83.9551,0,U,67905,999,2311,.24258E-3,.6418E-4,0
STARLINK-36763,2026-036C,2026-07-14T10:37:44.457024,15.27571381,.00010829,42.9956,249.7569,271.8568,88.2159,0,U,67906,999,2310,.2305917E-3,.6087E-4,0
STARLINK-36742,2026-036D,2026-07-14T04:15:34.621920,15.27600401,.00010731,42.9983,251.2079,309.4901,50.5856,0,U,67907,999,2306,.29079333E-3,.7753E-4,0
STARLINK-36827,2026-036E,2026-07-13T10:54:16.995168,15.27592351,.00016956,42.9998,255.2342,278.8109,81.2550,0,U,67908,999,2295,.3338062E-3,.8938E-4,0
STARLINK-36822,2026-036F,2026-07-14T10:21:05.527872,15.27581816,.00012765,42.9982,249.6700,269.7166,90.3540,0,U,67909,999,2310,.31426235E-3,.8396E-4,0
STARLINK-36847,2026-036G,2026-07-14T11:49:41.163456,15.27583559,.00017566,42.9996,249.2703,277.2930,82.7722,0,U,67910,999,2311,.14624864E-3,.3765E-4,0
STARLINK-36736,2026-036H,2026-07-14T10:06:16.766496,15.27586420,.00024438,43.0031,249.5836,291.8518,68.2074,0,U,67911,999,2310,.2764707E-3,.7355E-4,0
STARLINK-36676,2026-036J,2026-07-14T11:34:53.044896,15.27584110,.00015111,43.0013,249.1845,243.1532,116.9166,0,U,67912,999,2311,.28527423E-3,.7597E-4,0
STARLINK-36690,2026-036K,2026-07-14T11:29:20.234688,15.27605865,.00020952,43.0028,249.1521,280.2741,79.7874,0,U,67913,999,2311,.36651762E-3,.9845E-4,0
STARLINK-36724,2026-036L,2026-07-14T04:57:54.422496,15.27584045,.00019974,42.9994,250.5518,295.2412,64.8232,0,U,67914,999,2307,.25323166E-3,.6713E-4,0
STARLINK-36723,2026-036M,2026-07-14T14:32:05.514432,15.27581877,.00021924,42.9993,248.3768,229.8765,130.1894,0,U,67915,999,2313,.45044144E-3,.12154E-3,0
STARLINK-36721,2026-036N,2026-07-14T03:18:11.216448,15.27587270,.00020063,42.9983,250.8822,233.1714,126.8954,0,U,67916,999,2306,.31422393E-3,.8396E-4,0
STARLINK-36722,2026-036P,2026-07-14T12:37:34.883616,15.27585907,.0001667,43.0009,248.6374,280.4094,79.6569,0,U,67917,999,2312,.45648E-3,.12323E-3,0
STARLINK-36341,2026-036Q,2026-07-14T10:48:50.566464,15.27583532,.0000198,42.9957,249.8204,262.9438,97.1391,0,U,67918,999,2310,.25023592E-3,.6631E-4,0
STARLINK-36663,2026-036R,2026-07-14T10:57:52.532064,15.27589943,.0000606,42.9958,248.9798,255.4447,104.6338,0,U,67919,999,2311,.409688E-3,.11032E-3,0
STARLINK-36375,2026-036S,2026-07-14T12:13:44.593824,15.27584808,.00015289,42.9964,249.3919,276.0109,84.0569,0,U,67920,999,2311,.41183239E-3,.11089E-3,0
STARLINK-36405,2026-036T,2026-07-14T12:08:11.728320,15.27575340,.00013151,42.9986,249.3750,271.0457,89.0244,0,U,67921,999,2311,.34280168E-3,.9182E-4,0
STARLINK-36406,2026-036V,2026-07-14T11:57:05.442624,15.27582174,.00014831,42.9988,249.3215,267.4759,92.5923,0,U,67923,999,2311,.17397221E-3,.4529E-4,0
STARLINK-36714,2026-036W,2026-07-14T10:17:23.201664,15.27576309,.00016272,42.9974,249.6398,276.1959,83.8707,0,U,67924,999,2310,.2727983E-3,.7251E-4,0
STARLINK-36726,2026-036X,2026-07-14T11:42:17.447616,15.27597156,.0002315,43.0008,249.2398,280.3554,79.7037,0,U,67925,999,2311,.36071E-3,.9682E-4,0
STARLINK-36758,2026-036Y,2026-07-14T14:45:02.777472,15.27581713,.00023113,43.0010,248.4585,271.8166,88.2421,0,U,67926,999,2313,.36243863E-3,.9725E-4,0
STARLINK-36728,2026-036Z,2026-07-14T03:34:51.012192,15.27585406,.00020518,43.0051,250.9786,280.6267,79.4353,0,U,67927,999,2306,.29100974E-3,.7755E-4,0
STARLINK-36771,2026-036AA,2026-07-14T11:31:10.908768,15.27577152,.00023348,43.0025,249.1649,278.4659,81.5928,0,U,67928,999,2311,.24264816E-3,.642E-4,0
STARLINK-36809,2026-036AB,2026-07-14T12:54:14.028768,15.27590610,.00027356,43.0061,248.7378,285.5833,74.4717,0,U,67929,999,2312,.31421004E-3,.8397E-4,0
STARLINK-36865,2026-036AC,2026-07-14T04:48:38.762496,15.27587310,.00012164,42.9969,250.4879,228.3340,131.7408,0,U,67930,999,2307,.33995047E-3,.9106E-4,0
STARLINK-36781,2026-036AD,2026-07-14T11:10:49.312992,15.27586735,.0002328,43.0031,249.0491,277.3116,82.7471,0,U,67931,999,2311,.33629E-3,.9005E-4,0
STARLINK-36301,2026-037A,2026-07-14T09:28:11.581536,15.27582250,.00031084,42.9929,195.5924,47.2514,312.8599,0,U,67932,999,2271,.34232091E-3,.917E-4,0
STARLINK-36852,2026-037B,2026-07-14T10:56:46.554432,15.27586866,.00020179,43.0013,195.2073,259.4927,100.5698,0,U,67933,999,2272,.38024247E-3,.10218E-3,0
STARLINK-36861,2026-037C,2026-07-14T09:17:04.091424,15.27588749,.00017255,43.0009,195.5321,280.3624,79.7033,0,U,67934,999,2271,.28973521E-3,.7721E-4,0
STARLINK-36860,2026-037D,2026-07-14T01:20:42.872064,15.27650813,.00015418,43.0010,197.3606,264.1738,95.8938,0,U,67935,999,2266,.54657135E-3,.14841E-3,0
STARLINK-36848,2026-037E,2026-07-14T01:09:37.540224,15.27571139,.00008626,42.9984,197.3049,248.1335,111.9425,0,U,67936,999,2266,.52681348E-3,.14259E-3,0
STARLINK-36370,2026-037F,2026-07-14T09:05:58.181568,15.27580480,.00012097,43.0019,195.4854,273.7116,86.3598,0,U,67937,999,2271,.41857989E-3,.11274E-3,0
STARLINK-36371,2026-037G,2026-07-14T10:30:52.252128,15.27598564,.00013631,42.9999,195.0575,286.2528,73.8173,0,U,67938,999,2272,.25542605E-3,.6777E-4,0
STARLINK-36246,2026-037H,2026-07-14T07:17:00.478464,15.27589027,.00034064,42.9983,195.7757,282.1128,77.9342,0,U,67939,999,2270,.53761607E-3,.14566E-3,0
STARLINK-36907,2026-037J,2026-07-14T08:28:57.265248,15.27587123,.00013236,42.9991,195.2687,277.5034,82.5667,0,U,67940,999,2271,.22952333E-3,.606E-4,0
STARLINK-36927,2026-037K,2026-07-14T09:53:51.818784,15.27584705,.00020568,43.0001,194.8573,285.8989,74.1636,0,U,67941,999,2272,.48801821E-3,.13193E-3,0
STARLINK-36914,2026-037L,2026-07-14T08:45:36.331776,15.27581158,.0001456,42.9996,195.3526,275.3778,84.6907,0,U,67942,999,2271,.30020173E-3,.8008E-4,0
